start=new Date('2021-10-23T00:00:00.000Z').valueOf();
sats=[{"APOAPSIS":"548.341","OBJECT_NAME":"STARLINK-1928","MEAN_MOTION_DOT":"-0.00000380","EPOCH":"2021-10-22T11:59:06.051840","RA_OF_ASC_NODE":"305.6718","MEAN_MOTION":"15.06379327","FILE":"3178676","BSTAR":"-0.00000659130000","OBJECT_ID":"2020-074V","EPHEMERIS_TYPE":"0","MEAN_MOTION_DDOT":"0.0000000000000","SEMIMAJOR_AXIS":"6925.412","CENTER_NAME":"EARTH","SITE":"AFETR","PERIAPSIS":"546.213","CLASSIFICATION_TYPE":"U","DECAY_DATE":null,"TLE_LINE2":"2 46758  53.0545 305.6718 0001536  79.9944 280.1219 15.06379327 55579","TLE_LINE1":"1 46758U 20074V   21295.49937560 -.00000380  00000-0 -65913-5 0  9997","ARG_OF_PERICENTER":"79.9944","INCLINATION":"53.0545","PERIOD":"95.593","LAUNCH_DATE":"2020-10-24","OBJECT_TYPE":"PAYLOAD","REV_AT_EPOCH":"5557","MEAN_ELEMENT_THEORY":"SGP4","TIME_SYSTEM":"UTC","ELEMENT_SET_NO":"999","ECCENTRICITY":"0.00015360","COUNTRY_CODE":"US","RCS_SIZE":"LARGE","GP_ID":"187902291","NORAD_CAT_ID":"46758","MEAN_ANOMALY":"280.1219","REF_FRAME":"TEME"},{"MEAN_MOTION_DDOT":"0.0000000000000","SEMIMAJOR_AXIS":"6925.330","SITE":"AFETR","CENTER_NAME":"EARTH","PERIAPSIS":"546.392","CLASSIFICATION_TYPE":"U","DECAY_DATE":null,"MEAN_MOTION_DOT":"0.00001188","EPOCH":"2021-10-22T08:41:22.608672","OBJECT_NAME":"STARLINK-1833","APOAPSIS":"547.998","RA_OF_ASC_NODE":"316.2688","EPHEMERIS_TYPE":"0","MEAN_MOTION":"15.06406004","FILE":"3178676","BSTAR":"0.00009858200000","OBJECT_ID":"2020-074W","ELEMENT_SET_NO":"999","TIME_SYSTEM":"UTC","MEAN_ELEMENT_THEORY":"SGP4","ECCENTRICITY":"0.00011600","MEAN_ANOMALY":"269.0370","REF_FRAME":"TEME","COUNTRY_CODE":"US","NORAD_CAT_ID":"46759","GP_ID":"187903041","RCS_SIZE":"LARGE","TLE_LINE1":"1 46759U 20074W   21295.36206723  .00001188  00000-0  98582-4 0  9996","TLE_LINE2":"2 46759  53.0555 316.2688 0001160  91.0752 269.0370 15.06406004 55409","ARG_OF_PERICENTER":"91.0752","LAUNCH_DATE":"2020-10-24","OBJECT_TYPE":"PAYLOAD","INCLINATION":"53.0555","PERIOD":"95.592","REV_AT_EPOCH":"5540"},{"TIME_SYSTEM":"UTC","ELEMENT_SET_NO":"999","MEAN_ELEMENT_THEORY":"SGP4","ECCENTRICITY":"0.00012080","GP_ID":"187901789","RCS_SIZE":"LARGE","NORAD_CAT_ID":"46760","COUNTRY_CODE":"US","REF_FRAME":"TEME","MEAN_ANOMALY":"270.6420","TLE_LINE2":"2 46760  53.0534 315.9413 0001208  89.4708 270.6420 15.06387906 55420","TLE_LINE1":"1 46760U 20074X   21295.43947975  .00001495  00000-0  11930-3 0  9999","ARG_OF_PERICENTER":"89.4708","PERIOD":"95.593","INCLINATION":"53.0534","LAUNCH_DATE":"2020-10-24","OBJECT_TYPE":"PAYLOAD","REV_AT_EPOCH":"5542","SEMIMAJOR_AXIS":"6925.386","MEAN_MOTION_DDOT":"0.0000000000000","CENTER_NAME":"EARTH","SITE":"AFETR","CLASSIFICATION_TYPE":"U","DECAY_DATE":null,"PERIAPSIS":"546.414","OBJECT_NAME":"STARLINK-1896","APOAPSIS":"548.087","MEAN_MOTION_DOT":"0.00001495","EPOCH":"2021-10-22T10:32:51.050400","RA_OF_ASC_NODE":"315.9413","OBJECT_ID":"2020-074X","FILE":"3178676","MEAN_MOTION":"15.06387906","BSTAR":"0.00011930000000","EPHEMERIS_TYPE":"0"},{"REV_AT_EPOCH":"5579","OBJECT_TYPE":"PAYLOAD","LAUNCH_DATE":"2020-10-24","INCLINATION":"53.0534","PERIOD":"91.031","ARG_OF_PERICENTER":"30.2796","TLE_LINE1":"1 46762U 20074Z   21295.69237863  .00926207  00000-0  40214-2 0  9990","TLE_LINE2":"2 46762  53.0534 291.0450 0001361  30.2796 329.8304 15.81881018 55792","MEAN_ANOMALY":"329.8304","REF_FRAME":"TEME","COUNTRY_CODE":"US","NORAD_CAT_ID":"46762","GP_ID":"187933889","RCS_SIZE":"LARGE","ECCENTRICITY":"0.00013610","TIME_SYSTEM":"UTC","MEAN_ELEMENT_THEORY":"SGP4","ELEMENT_SET_NO":"999","EPHEMERIS_TYPE":"0","FILE":"3179071","MEAN_MOTION":"15.81881018","BSTAR":"0.00402140000000","OBJECT_ID":"2020-074Z","RA_OF_ASC_NODE":"291.0450","MEAN_MOTION_DOT":"0.00926207","EPOCH":"2021-10-22T16:37:01.513632","APOAPSIS":"326.036","OBJECT_NAME":"STARLINK-1901","PERIAPSIS":"324.211","CLASSIFICATION_TYPE":"U","DECAY_DATE":null,"SITE":"AFETR","CENTER_NAME":"EARTH","SEMIMAJOR_AXIS":"6703.258","MEAN_MOTION_DDOT":"0.0000000000000"},{"ECCENTRICITY":"0.00013390","GP_ID":"187902791","RCS_SIZE":"LARGE","NORAD_CAT_ID":"46763","COUNTRY_CODE":"US","REF_FRAME":"TEME","MEAN_ANOMALY":"275.4908","TIME_SYSTEM":"UTC","MEAN_ELEMENT_THEORY":"SGP4","ELEMENT_SET_NO":"999","PERIOD":"95.644","INCLINATION":"53.0558","LAUNCH_DATE":"2020-10-24","OBJECT_TYPE":"PAYLOAD","REV_AT_EPOCH":"5543","TLE_LINE2":"2 46763  53.0558 315.5885 0001339  84.6233 275.4908 15.05585482 55436","TLE_LINE1":"1 46763U 20074AA  21295.51886218 -.00000650  00000-0 -25456-4 0  9996","ARG_OF_PERICENTER":"84.6233","SITE":"AFETR","CENTER_NAME":"EARTH","DECAY_DATE":null,"CLASSIFICATION_TYPE":"U","PERIAPSIS":"548.783","SEMIMAJOR_AXIS":"6927.846","MEAN_MOTION_DDOT":"0.0000000000000","RA_OF_ASC_NODE":"315.5885","OBJECT_ID":"2020-074AA","BSTAR":"-0.00002545600000","FILE":"3178676","MEAN_MOTION":"15.05585482","EPHEMERIS_TYPE":"0","OBJECT_NAME":"STARLINK-1902","APOAPSIS":"550.639","MEAN_MOTION_DOT":"-0.00000650","EPOCH":"2021-10-22T12:27:09.692352"},{"RA_OF_ASC_NODE":"315.9636","EPHEMERIS_TYPE":"0","OBJECT_ID":"2020-074AB","FILE":"3178676","BSTAR":"-0.00000550300000","MEAN_MOTION":"15.06385191","MEAN_MOTION_DOT":"-0.00000363","EPOCH":"2021-10-22T10:22:14.469888","OBJECT_NAME":"STARLINK-1903","APOAPSIS":"548.102","SITE":"AFETR","CENTER_NAME":"EARTH","CLASSIFICATION_TYPE":"U","DECAY_DATE":null,"PERIAPSIS":"546.416","SEMIMAJOR_AXIS":"6925.394","MEAN_MOTION_DDOT":"0.0000000000000","LAUNCH_DATE":"2020-10-24","OBJECT_TYPE":"PAYLOAD","PERIOD":"95.593","INCLINATION":"53.0538","REV_AT_EPOCH":"5542","TLE_LINE1":"1 46764U 20074AB  21295.43211192 -.00000363  00000-0 -55030-5 0  9994","TLE_LINE2":"2 46764  53.0538 315.9636 0001217  87.7810 272.3318 15.06385191 55429","ARG_OF_PERICENTER":"87.7810","ECCENTRICITY":"0.00012170","REF_FRAME":"TEME","MEAN_ANOMALY":"272.3318","NORAD_CAT_ID":"46764","GP_ID":"187902542","RCS_SIZE":"LARGE","COUNTRY_CODE":"US","MEAN_ELEMENT_THEORY":"SGP4","TIME_SYSTEM":"UTC","ELEMENT_SET_NO":"999"},{"ELEMENT_SET_NO":"999","TIME_SYSTEM":"UTC","MEAN_ELEMENT_THEORY":"SGP4","ECCENTRICITY":"0.00013600","COUNTRY_CODE":"US","GP_ID":"187933637","RCS_SIZE":"LARGE","NORAD_CAT_ID":"46765","MEAN_ANOMALY":"276.4080","REF_FRAME":"TEME","TLE_LINE2":"2 46765  53.0571 315.4174 0001360  83.7064 276.4080 15.06398977 55433","TLE_LINE1":"1 46765U 20074AC  21295.55372594  .00001017  00000-0  87187-4 0  9994","ARG_OF_PERICENTER":"83.7064","INCLINATION":"53.0571","PERIOD":"95.592","LAUNCH_DATE":"2020-10-24","OBJECT_TYPE":"PAYLOAD","REV_AT_EPOCH":"5543","SEMIMAJOR_AXIS":"6925.352","MEAN_MOTION_DDOT":"0.0000000000000","SITE":"AFETR","CENTER_NAME":"EARTH","PERIAPSIS":"546.275","DECAY_DATE":null,"CLASSIFICATION_TYPE":"U","APOAPSIS":"548.159","OBJECT_NAME":"STARLINK-1906","MEAN_MOTION_DOT":"0.00001017","EPOCH":"2021-10-22T13:17:21.921216","RA_OF_ASC_NODE":"315.4174","BSTAR":"0.00008718700000","FILE":"3179071","MEAN_MOTION":"15.06398977","OBJECT_ID":"2020-074AC","EPHEMERIS_TYPE":"0"},{"ECCENTRICITY":"0.00012700","COUNTRY_CODE":"US","GP_ID":"187902040","RCS_SIZE":"LARGE","NORAD_CAT_ID":"46766","MEAN_ANOMALY":"281.7391","REF_FRAME":"TEME","TIME_SYSTEM":"UTC","ELEMENT_SET_NO":"999","MEAN_ELEMENT_THEORY":"SGP4","INCLINATION":"53.0535","PERIOD":"95.593","LAUNCH_DATE":"2020-10-24","OBJECT_TYPE":"PAYLOAD","REV_AT_EPOCH":"5543","TLE_LINE2":"2 46766  53.0535 315.7620 0001270  78.3740 281.7391 15.06386251 55430","TLE_LINE1":"1 46766U 20074AD  21295.48002805  .00001332  00000-0  10832-3 0  9994","ARG_OF_PERICENTER":"78.3740","SITE":"AFETR","CENTER_NAME":"EARTH","PERIAPSIS":"546.376","DECAY_DATE":null,"CLASSIFICATION_TYPE":"U","MEAN_MOTION_DDOT":"0.0000000000000","SEMIMAJOR_AXIS":"6925.391","RA_OF_ASC_NODE":"315.7620","BSTAR":"0.00010832000000","FILE":"3178676","MEAN_MOTION":"15.06386251","OBJECT_ID":"2020-074AD","EPHEMERIS_TYPE":"0","OBJECT_NAME":"STARLINK-1916","APOAPSIS":"548.135","EPOCH":"2021-10-22T11:31:14.423520","MEAN_MOTION_DOT":"0.00001332"},{"ARG_OF_PERICENTER":"66.7053","TLE_LINE1":"1 46767U 20074AE  21295.44316634 -.00000376  00000-0 -63341-5 0  9993","TLE_LINE2":"2 46767  53.0535 315.9159 0001263  66.7053 293.4068 15.06390038 55428","REV_AT_EPOCH":"5542","OBJECT_TYPE":"PAYLOAD","LAUNCH_DATE":"2020-10-24","INCLINATION":"53.0535","PERIOD":"95.593","ELEMENT_SET_NO":"999","TIME_SYSTEM":"UTC","MEAN_ELEMENT_THEORY":"SGP4","MEAN_ANOMALY":"293.4068","REF_FRAME":"TEME","COUNTRY_CODE":"US","GP_ID":"187902292","RCS_SIZE":"LARGE","NORAD_CAT_ID":"46767","ECCENTRICITY":"0.00012630","EPOCH":"2021-10-22T10:38:09.571776","MEAN_MOTION_DOT":"-0.00000376","APOAPSIS":"548.119","OBJECT_NAME":"STARLINK-1917","EPHEMERIS_TYPE":"0","FILE":"3178676","MEAN_MOTION":"15.06390038","BSTAR":"-0.00000633410000","OBJECT_ID":"2020-074AE","RA_OF_ASC_NODE":"315.9159","MEAN_MOTION_DDOT":"0.0000000000000","SEMIMAJOR_AXIS":"6925.379","PERIAPSIS":"546.369","DECAY_DATE":null,"CLASSIFICATION_TYPE":"U","CENTER_NAME":"EARTH","SITE":"AFETR"},{"MEAN_ELEMENT_THEORY":"SGP4","ELEMENT_SET_NO":"999","TIME_SYSTEM":"UTC","ECCENTRICITY":"0.00012170","MEAN_ANOMALY":"275.6502","REF_FRAME":"TEME","COUNTRY_CODE":"US","RCS_SIZE":"LARGE","GP_ID":"187932889","NORAD_CAT_ID":"46768","TLE_LINE1":"1 46768U 20074AF  21295.64589185  .00001084  00000-0  91700-4 0  9993","TLE_LINE2":"2 46768  53.0558 315.0034 0001217  84.4625 275.6502 15.06389088 55459","ARG_OF_PERICENTER":"84.4625","LAUNCH_DATE":"2020-10-24","OBJECT_TYPE":"PAYLOAD","INCLINATION":"53.0558","PERIOD":"95.593","REV_AT_EPOCH":"5545","MEAN_MOTION_DDOT":"0.0000000000000","SEMIMAJOR_AXIS":"6925.382","CENTER_NAME":"EARTH","SITE":"AFETR","PERIAPSIS":"546.404","CLASSIFICATION_TYPE":"U","DECAY_DATE":null,"MEAN_MOTION_DOT":"0.00001084","EPOCH":"2021-10-22T15:30:05.055840","OBJECT_NAME":"STARLINK-1918","APOAPSIS":"548.090","RA_OF_ASC_NODE":"315.0034","EPHEMERIS_TYPE":"0","MEAN_MOTION":"15.06389088","FILE":"3179071","BSTAR":"0.00009170000000","OBJECT_ID":"2020-074AF"}];
